STARLINK-1830_new
1 16727C 20073BK  21326.12638509 -.00016453  00000-0 -11022-2 0  3269
2 16727  53.0535  58.1669 0001252  73.8352 334.2339 15.06419886    18
STARLINK-1830_old
1 26727C 20073BK  21325.16578264  .00005291  00000-0  35446-3 0  3255
2 26727  53.0536  62.4792 0001204  76.9441 158.8523 15.06395830    11
